[{"OBJECT_NAME":"CONTINUUM-1","OBJECT_ID":"2023-001AN","EPOCH":"2026-03-09T23:17:35.458656","MEAN_MOTION":15.27981258,"ECCENTRICITY":0.00109493,"INCLINATION":97.3456,"RA_OF_ASC_NODE":133.3964,"ARG_OF_PERICENTER":60.1976,"MEAN_ANOMALY":300.0351,"EPHEMERIS_TYPE":0,"CLASSIFICATION_TYPE":"U","NORAD_CAT_ID":55045,"ELEMENT_SET_NO":999,"REV_AT_EPOCH":17709,"BSTAR":0.00052859897,"MEAN_MOTION_DOT":0.00014395,"MEAN_MOTION_DDOT":0},{"OBJECT_NAME":"STARLINK-36542","OBJECT_ID":"2026-008A","EPOCH":"2026-03-09T09:25:55.140384","MEAN_MOTION":15.27630907,"ECCENTRICITY":0.00013345,"INCLINATION":42.9989,"RA_OF_ASC_NODE":207.1817,"ARG_OF_PERICENTER":182.2029,"MEAN_ANOMALY":177.8817,"EPHEMERIS_TYPE":0,"CLASSIFICATION_TYPE":"U","NORAD_CAT_ID":67445,"ELEMENT_SET_NO":999,"REV_AT_EPOCH":952,"BSTAR":0.0011507085,"MEAN_MOTION_DOT":0.00031588,"MEAN_MOTION_DDOT":0}]
